[{"OBJECT_NAME":"CELESTIS-17 & SHERPA-FX1","OBJECT_ID":"2021-006CB","EPOCH":"2026-03-09T15:26:05.078112","MEAN_MOTION":15.30994801,"ECCENTRICITY":0.000663,"INCLINATION":97.2397,"RA_OF_ASC_NODE":112.1052,"ARG_OF_PERICENTER":178.1385,"MEAN_ANOMALY":181.9882,"EPHEMERIS_TYPE":0,"CLASSIFICATION_TYPE":"U","NORAD_CAT_ID":47486,"ELEMENT_SET_NO":999,"REV_AT_EPOCH":28406,"BSTAR":0.00024301,"MEAN_MOTION_DOT":7.207e-5,"MEAN_MOTION_DDOT":0},{"OBJECT_NAME":"STARLINK-32679","OBJECT_ID":"2025-003W","EPOCH":"2026-03-09T00:21:07.320384","MEAN_MOTION":15.27616229,"ECCENTRICITY":0.00012968,"INCLINATION":43.0015,"RA_OF_ASC_NODE":293.1482,"ARG_OF_PERICENTER":271.2196,"MEAN_ANOMALY":88.8507,"EPHEMERIS_TYPE":0,"CLASSIFICATION_TYPE":"U","NORAD_CAT_ID":62507,"ELEMENT_SET_NO":999,"REV_AT_EPOCH":6656,"BSTAR":0.0013254356,"MEAN_MOTION_DOT":0.00036432,"MEAN_MOTION_DDOT":0}]
